COMMENT,ORIGINATOR,NORAD_CAT_ID,OBJECT_NAME,OBJECT_TYPE,CLASSIFICATION_TYPE,INTLDES,EPOCH,EPOCH_MICROSECONDS,MEAN_MOTION,ECCENTRICITY,INCLINATION,RA_OF_ASC_NODE,ARG_OF_PERICENTER,MEAN_ANOMALY,EPHEMERIS_TYPE,ELEMENT_SET_NO,REV_AT_EPOCH,BSTAR,MEAN_MOTION_DOT,MEAN_MOTION_DDOT,FILE,TLE_LINE0,TLE_LINE1,TLE_LINE2,OBJECT_ID,OBJECT_NUMBER,SEMIMAJOR_AXIS,PERIOD,APOGEE,PERIGEE
"GENERATED VIA SPACETRACK.ORG API","JSPOC","5051","SL-8 R/B","ROCKET BODY","U","71020B","2016-01-09 23:04:04","156608","13.75786066","0.0048376","65.8165","11.1862","173.997","209.7947","0","999","24940","7.8409e-05","-4e-08","0","1978726","0 SL-8 R/B","1  5051U 71020B   16009.96115922 -.00000004 +00000-0 +78409-4 0  9999","2  5051 065.8165 011.1862 0048376 173.9970 209.7947 13.75786066249403","1971-020B","5051","7357.008","104.667","1014.463","943.282"
"GENERATED VIA SPACETRACK.ORG API","JSPOC","6851","COSMOS 594","PAYLOAD","U","73069G","2016-01-09 23:04:04","882368","12.57593183","0.0066878","74.0008","24.7071","25.1425","352.9396","0","999","94049","5.7904e-05","-6e-08","0","1978726","0 COSMOS 594","1  6851U 73069G   16009.96116762 -.00000006 +00000-0 +57904-4 0  9995","2  6851 074.0008 024.7071 0066878 025.1425 352.9396 12.57593183940493","1973-069G","6851","7811.031","114.504","1485.135","1380.657"
"GENERATED VIA SPACETRACK.ORG API","JSPOC","16012","SL-8 R/B","ROCKET BODY","U","85079B","2016-01-09 23:04:05","228832","14.36163577","0.0013817","74.0594","16.231","47.9565","312.2762","0","999","58833","3.2467e-06","-1.7e-07","0","1978726","0 SL-8 R/B","1 16012U 85079B   16009.96117163 -.00000017 +00000-0 +32467-5 0  9995","2 16012 074.0594 016.2310 0013817 047.9565 312.2762 14.36163577588333","1985-079B","16012","7149.339","100.267","781.082","761.325"
"GENERATED VIA SPACETRACK.ORG API","JSPOC","20510","OKEAN 2","PAYLOAD","U","90018A","2016-01-09 23:04:06","397824","14.9828137","0.0011437","82.5177","314.6002","318.8623","107.9972","0","999","38181","7.7865e-05","9.53e-06","0","1978726","0 OKEAN 2","1 20510U 90018A   16009.96118516 +.00000953 +00000-0 +77865-4 0  9993","2 20510 082.5177 314.6002 0011437 318.8623 107.9972 14.98281370381812","1990-018A","20510","6950.343","96.110","580.157","564.259"
"GENERATED VIA SPACETRACK.ORG API","JSPOC","40545","GALILEO 8 (264)","PAYLOAD","U","15017B","2016-01-09 23:04:19","891776","1.70475989","0.000318","55.2342","86.8096","194.3698","165.6706","0","999","489","0","-2.6e-07","0","1979034","0 GALILEO 8 (264)","1 40545U 15017B   16009.96134134 -.00000026 +00000-0 +00000-0 0  9998","2 40545 055.2342 086.8096 0003180 194.3698 165.6706 01.70475989004892","2015-017B","40545","29600.089","844.693","23231.367","23212.541"
"GENERATED VIA SPACETRACK.ORG API","JSPOC","8419","COSMOS 778","PAYLOAD","U","75103A","2016-01-09 23:04:20","42112","13.74558651","0.0022911","82.9726","222.9894","50.7992","58.878","0","999","1497","4.5434e-05","5.8e-07","0","1978726","0 COSMOS 778","1  8419U 75103A   16009.96134308 +.00000058 +00000-0 +45434-4 0  9995","2  8419 082.9726 222.9894 0022911 050.7992 058.8780 13.74558651014973","1975-103A","8419","7361.387","104.760","1000.117","966.386"
"GENERATED VIA SPACETRACK.ORG API","JSPOC","10932","COSMOS 1015","PAYLOAD","U","78056C","2016-01-09 23:04:20","832672","12.42766993","0.0026995","74.0246","233.6186","24.8233","77.8321","0","999","70537","0.00020877","1.3e-07","0","1978726","0 COSMOS 1015","1 10932U 78056C   16009.96135223 +.00000013 +00000-0 +20877-3 0  9999","2 10932 074.0246 233.6186 0026995 024.8233 077.8321 12.42766993705371","1978-056C","10932","7873.032","115.870","1516.150","1473.644"
"GENERATED VIA SPACETRACK.ORG API","JSPOC","10010","COSMOS 909","PAYLOAD","U","77036A","2016-01-09 23:04:22","663488","12.30332045","0.0697608","65.8666","326.733","96.983","271.0964","0","999","71643","-2.7144e-05","-6e-07","0","1978726","0 COSMOS 909","1 10010U 77036A   16009.96137342 -.00000060 +00000-0 -27144-4 0  9996","2 10010 065.8666 326.7330 0697608 096.9830 271.0964 12.30332045716439","1977-036A","10010","7925.991","117.041","2100.780","994.933"
"GENERATED VIA SPACETRACK.ORG API","JSPOC","16142","COSMOS 1694","PAYLOAD","U","85094E","2016-01-09 23:04:22","998720","12.63675363","0.0012567","82.6083","170.2849","91.6488","37.1826","0","999","39528","-1.8558e-05","7e-08","0","1978726","0 COSMOS 1694","1 16142U 85094E   16009.96137730 +.00000007 +00000-0 -18558-4 0  9991","2 16142 082.6083 170.2849 0012567 091.6488 037.1826 12.63675363395287","1985-094E","16142","7785.947","113.953","1417.597","1398.028"
"GENERATED VIA SPACETRACK.ORG API","JSPOC","27445","GALAXY 3C","PAYLOAD","U","02030A","2016-01-09 23:04:33","472128","1.00266655","0.0001282","0.0292","24.5211","298.3495","37.1205","0","999","4974","0","-1.46e-06","0","1978357","0 GALAXY 3C","1 27445U 02030A   16009.96149852 -.00000146  00000-0  00000+0 0  9998","2 27445   0.0292  24.5211 0001282 298.3495  37.1205  1.00266655 49748","2002-030A","27445","42166.170","1436.170","35793.440","35782.629"
"GENERATED VIA SPACETRACK.ORG API","JSPOC","27445","GALAXY 3C","PAYLOAD","U","02030A","2016-01-09 23:04:34","824288","1.00268522","0.0001589","0.0296","26.7216","318.0638","15.2098","0","999","4974","0","-1.46e-06","0","1978628","0 GALAXY 3C","1 27445U 02030A   16009.96151417 -.00000146  00000-0  00000+0 0  9998","2 27445   0.0296  26.7216 0001589 318.0638  15.2098  1.00268522 49742","2002-030A","27445","42165.646","1436.143","35794.211","35780.811"
"GENERATED VIA SPACETRACK.ORG API","JSPOC","23561","ARIANE 40+ R/B","ROCKET BODY","U","95021B","2016-01-09 23:04:43","355424","14.37691006","0.0007342","98.7546","354.0902","18.8133","42.4879","0","999","8570","5.4316e-05","1.17e-06","0","1978726","0 ARIANE 40+ R/B","1 23561U 95021B   16009.96161291 +.00000117 +00000-0 +54316-4 0  9997","2 23561 098.7546 354.0902 0007342 018.8133 042.4879 14.37691006085702","1995-021B","23561","7144.274","100.160","771.384","760.894"
"GENERATED VIA SPACETRACK.ORG API","JSPOC","17359","COSMOS 1816","PAYLOAD","U","87009A","2016-01-09 23:04:54","556320","13.74396956","0.0033179","82.9256","332.5406","29.4248","28.9923","0","999","45160","1.6849e-05","3.1e-07","0","1978726","0 COSMOS 1816","1 17359U 87009A   16009.96174255 +.00000031 +00000-0 +16849-4 0  9990","2 17359 082.9256 332.5406 0033179 029.4248 028.9923 13.74396956451606","1987-009A","17359","7361.964","104.773","1008.255","959.403"
"GENERATED VIA SPACETRACK.ORG API","JSPOC","8421","SL-8 R/B","ROCKET BODY","U","75103B","2016-01-09 23:04:57","460224","13.76691937","0.0021754","82.9716","185.7658","265.7252","248.1577","0","999","1671","8.0403e-05","9.4e-07","0","1978726","0 SL-8 R/B","1  8421U 75103B   16009.96177616 +.00000094 +00000-0 +80403-4 0  9992","2  8421 082.9716 185.7658 0021754 265.7252 248.1577 13.76691937016719","1975-103B","8421","7353.780","104.598","991.642","959.648"
"GENERATED VIA SPACETRACK.ORG API","JSPOC","20323","DELTA 1 R/B","ROCKET BODY","U","89089B","2016-01-09 23:05:08","469312","14.48074589","0.0070517","97.069","34.4188","290.647","68.7175","0","999","35832","3.991e-05","1.17e-06","0","1978726","0 DELTA 1 R/B","1 20323U 89089B   16009.96190358 +.00000117 +00000-0 +39910-4 0  9996","2 20323 097.0690 034.4188 0070517 290.6470 068.7175 14.48074589358324","1989-089B","20323","7110.081","99.442","782.084","681.807"
"GENERATED VIA SPACETRACK.ORG API","JSPOC","12818","COSMOS 1305","PAYLOAD","U","81088A","2016-01-09 23:05:21","106176","5.4607248","0.4524181","63.3721","204.2892","207.8816","340.518","0","999","68461","0","3.9e-07","0","1978726","0 COSMOS 1305","1 12818U 81088A   16009.96204984 +.00000039 +00000-0 +00000-0 0  9995","2 12818 063.3721 204.2892 4524181 207.8816 340.5180 05.46072480684610","1981-088A","12818","13621.815","263.701","13406.435","1080.924"
"GENERATED VIA SPACETRACK.ORG API","JSPOC","4257","TIMATION 2","PAYLOAD","U","69082C","2016-01-09 23:05:28","850208","13.95708008","0.0018242","70.0161","312.6188","45.5434","17.0108","0","999","35479","2.958e-05","-1.2e-07","0","1978726","0 TIMATION 2","1  4257U 69082C   16009.96213947 -.00000012 +00000-0 +29580-4 0  9992","2  4257 070.0161 312.6188 0018242 045.5434 017.0108 13.95708008354792","1969-082C","4257","7286.832","103.173","921.990","895.404"
"GENERATED VIA SPACETRACK.ORG API","JSPOC","28367","SL-24 R/B","ROCKET BODY","U","04025B","2016-01-09 23:05:35","234304","13.88101223","0.0351658","98.1711","3.4702","32.0799","19.3441","0","999","58414","2.0719e-05","4e-08","0","1978726","0 SL-24 R/B","1 28367U 04025B   16009.96221336 +.00000004 +00000-0 +20719-4 0  9992","2 28367 098.1711 003.4702 0351658 032.0799 019.3441 13.88101223584142","2004-025B","28367","7313.429","103.738","1192.477","678.111"
"GENERATED VIA SPACETRACK.ORG API","JSPOC","28480","CZ-2C R/B","ROCKET BODY","U","04046B","2016-01-09 23:05:58","759296","14.25560482","0.0141517","98.1652","134.5532","332.3514","134.8428","0","999","57952","3.3095e-05","4.5e-07","0","1978726","0 CZ-2C R/B","1 28480U 04046B   16009.96248564 +.00000045 +00000-0 +33095-4 0  9999","2 28480 098.1652 134.5532 0141517 332.3514 134.8428 14.25560482579523","2004-046B","28480","7184.745","101.012","908.287","704.934"
"GENERATED VIA SPACETRACK.ORG API","JSPOC","25568","ASTRID 2","PAYLOAD","U","98072B","2016-01-09 23:06:09","365760","13.72448423","0.0023715","82.9484","13.3802","235.5427","186.5483","0","999","85528","6.5963e-05","7.5e-07","0","1978726","0 ASTRID 2","1 25568U 98072B   16009.96260840 +.00000075 +00000-0 +65963-4 0  9998","2 25568 082.9484 013.3802 0023715 235.5427 186.5483 13.72448423855287","1998-072B","25568","7368.930","104.921","1008.271","973.320"
